{
  "type" : "FeatureCollection",
  "crs" : {
    "type" : "name",
    "properties" : {
      "name" : "EPSG:3826"
    }
  },
  "features" : [{"type":"Feature","id":1,"geometry":{"type":"Point","coordinates":[170338.14900000021,2541688.8790000007]},"properties":{"OBJECTID":1,"店名":"全聯崇明","公司名稱":"全聯實業股份有限公司","Address":"臺南市東區崇明路385號1樓","Response_X":170338.149,"Response_Y":2541688.8790000002}},{"type":"Feature","id":2,"geometry":{"type":"Point","coordinates":[171224.70000000019,2542658.5490000006]},"properties":{"OBJECTID":2,"店名":"全聯中華東","公司名稱":"全聯實業股份有限公司","Address":"臺南市東區自強里中華東路2段237號1樓","Response_X":171224.70000000001,"Response_Y":2542658.5490000001}},{"type":"Feature","id":3,"geometry":{"type":"Point","coordinates":[171806.51900000032,2542524.9299999997]},"properties":{"OBJECTID":3,"店名":"全聯自由","公司名稱":"全聯實業股份有限公司","Address":"臺南市東區復興里自由路3段376號","Response_X":171806.519,"Response_Y":2542524.9300000002}},{"type":"Feature","id":4,"geometry":{"type":"Point","coordinates":[172275.88999999966,2542900.7899999991]},"properties":{"OBJECTID":4,"店名":"全聯裕忠","公司名稱":"全聯實業股份有限公司","Address":"臺南市東區關聖里裕忠路107號","Response_X":172275.89000000001,"Response_Y":2542900.79}},{"type":"Feature","id":5,"geometry":{"type":"Point","coordinates":[170039.14900000021,2542177.8699999992]},"properties":{"OBJECTID":5,"店名":"全聯崇德","公司名稱":"全聯實業股份有限公司","Address":"臺南市東區崇德路154號、156號1樓","Response_X":170039.149,"Response_Y":2542177.8700000001}},{"type":"Feature","id":6,"geometry":{"type":"Point","coordinates":[170111.58999999985,2543412.5800000001]},"properties":{"OBJECTID":6,"店名":"全聯長榮","公司名稱":"全聯實業股份有限公司","Address":"臺南市東區長榮路2段180號1樓","Response_X":170111.59,"Response_Y":2543412.5800000001}},{"type":"Feature","id":7,"geometry":{"type":"Point","coordinates":[171261.41999999993,2541562.4900000002]},"properties":{"OBJECTID":7,"店名":"全聯仁和","公司名稱":"全聯實業股份有限公司","Address":"臺南市東區仁和路77-38號","Response_X":171261.42000000001,"Response_Y":2541562.4900000002}},{"type":"Feature","id":8,"geometry":{"type":"Point","coordinates":[170686.12000000011,2541386.4800000004]},"properties":{"OBJECTID":8,"店名":"全聯崇道","公司名稱":"全聯實業股份有限公司","Address":"臺南市東區崇道路24號","Response_X":170686.12,"Response_Y":2541386.48}},{"type":"Feature","id":9,"geometry":{"type":"Point","coordinates":[171165.60900000017,2540959.4600000009]},"properties":{"OBJECTID":9,"店名":"全聯崇善","公司名稱":"全聯實業股份有限公司","Address":"臺南市東區崇善路666號","Response_X":171165.609,"Response_Y":2540959.46}},{"type":"Feature","id":10,"geometry":{"type":"Point","coordinates":[170968.92899999954,2544410.4499999993]},"properties":{"OBJECTID":10,"店名":"全聯小東","公司名稱":"全聯實業股份有限公司","Address":"臺南市東區小東路246號1、2樓","Response_X":170968.929,"Response_Y":2544410.4500000002}},{"type":"Feature","id":11,"geometry":{"type":"Point","coordinates":[170680.25,2543547.7200000007]},"properties":{"OBJECTID":11,"店名":"全聯東安","公司名稱":"全聯實業股份有限公司","Address":"臺南市東區東明里東安路20號1樓","Response_X":170680.25,"Response_Y":2543547.7200000002}},{"type":"Feature","id":12,"geometry":{"type":"Point","coordinates":[171202.95000000019,2543125.1799999997]},"properties":{"OBJECTID":12,"店名":"全聯裕農","公司名稱":"全聯實業股份有限公司","Address":"臺南市東區富強里裕農路400號1樓","Response_X":171202.95000000001,"Response_Y":2543125.1800000002}},{"type":"Feature","id":13,"geometry":{"type":"Point","coordinates":[170099.35900000017,2542568.0889999997]},"properties":{"OBJECTID":13,"店名":"全聯林森","公司名稱":"全聯實業股份有限公司","Address":"臺南市東區龍山里崇善路23號","Response_X":170099.359,"Response_Y":2542568.0890000002}},{"type":"Feature","id":14,"geometry":{"type":"Point","coordinates":[170579.20000000019,2540627.1600000001]},"properties":{"OBJECTID":14,"店名":"全聯生產","公司名稱":"全聯實業股份有限公司","Address":"臺南市東區崇明里生產路181號","Response_X":170579.20000000001,"Response_Y":2540627.1600000001}},{"type":"Feature","id":15,"geometry":{"type":"Point","coordinates":[170700.32899999991,2544026.5490000006]},"properties":{"OBJECTID":15,"店名":"全聯東平","公司名稱":"全聯實業股份有限公司","Address":"臺南市東區小東里東平路190、192、196號","Response_X":170700.329,"Response_Y":2544026.5490000001}},{"type":"Feature","id":16,"geometry":{"type":"Point","coordinates":[169797.0700000003,2540392.5399999991]},"properties":{"OBJECTID":16,"店名":"7-11崇輝","公司名稱":"統一超商股份有限公司","Address":"臺南市東區崇賢三路93、95號1樓","Response_X":169797.07000000001,"Response_Y":2540392.54}},{"type":"Feature","id":17,"geometry":{"type":"Point","coordinates":[169294.66000000015,2543383.4900000002]},"properties":{"OBJECTID":17,"店名":"7-11新新樓","公司名稱":"統一超商股份有限公司","Address":"臺南市東區前鋒路16號1樓","Response_X":169294.66,"Response_Y":2543383.4900000002}},{"type":"Feature","id":18,"geometry":{"type":"Point","coordinates":[169142.69000000041,2542799.5600000005]},"properties":{"OBJECTID":18,"店名":"7-11元馨","公司名稱":"統一超商股份有限公司","Address":"臺南市東區府宅里大同路一段１７３號１樓","Response_X":169142.69,"Response_Y":2542799.5600000001}},{"type":"Feature","id":19,"geometry":{"type":"Point","coordinates":[169881.26900000032,2543001.2899999991]},"properties":{"OBJECTID":19,"店名":"7-11東龍","公司名稱":"統一超商股份有限公司","Address":"臺南市東區龍山里十二鄰東門路一段三六二號一樓","Response_X":169881.269,"Response_Y":2543001.29}},{"type":"Feature","id":20,"geometry":{"type":"Point","coordinates":[170545.23000000045,2544439.9299999997]},"properties":{"OBJECTID":20,"店名":"7-11新東","公司名稱":"統一超商股份有限公司","Address":"臺南市東區林森路二段84、86號1樓","Response_X":170545.23000000001,"Response_Y":2544439.9300000002}},{"type":"Feature","id":21,"geometry":{"type":"Point","coordinates":[169680.42899999954,2543515.1999999993]},"properties":{"OBJECTID":21,"店名":"7-11慶東","公司名稱":"統一超商股份有限公司","Address":"臺南市東區青年路416號1樓","Response_X":169680.429,"Response_Y":2543515.2000000002}},{"type":"Feature","id":22,"geometry":{"type":"Point","coordinates":[169656.28000000026,2542511.1600000001]},"properties":{"OBJECTID":22,"店名":"7-11崇明","公司名稱":"統一超商股份有限公司","Address":"臺南市東區林森路一段184號1樓","Response_X":169656.28,"Response_Y":2542511.1600000001}},{"type":"Feature","id":23,"geometry":{"type":"Point","coordinates":[169235.42899999954,2544119.9189999998]},"properties":{"OBJECTID":23,"店名":"7-11北門","公司名稱":"統一超商股份有限公司","Address":"臺南市東區北門路1段310、312號1樓","Response_X":169235.429,"Response_Y":2544119.9190000002}},{"type":"Feature","id":24,"geometry":{"type":"Point","coordinates":[170212.19000000041,2543661.8499999996]},"properties":{"OBJECTID":24,"店名":"7-11長寧","公司名稱":"統一超商股份有限公司","Address":"臺南市東區長榮路三段12號1樓","Response_X":170212.19,"Response_Y":2543661.8500000001}},{"type":"Feature","id":25,"geometry":{"type":"Point","coordinates":[170587.37999999989,2540806.75]},"properties":{"OBJECTID":25,"店名":"7-11福耀","公司名稱":"統一超商股份有限公司","Address":"臺南市東區崇明路377、377-1號1樓","Response_X":170587.38,"Response_Y":2540806.75}},{"type":"Feature","id":26,"geometry":{"type":"Point","coordinates":[170962.45000000019,2542400.6290000007]},"properties":{"OBJECTID":26,"店名":"7-11裕豐","公司名稱":"統一超商股份有限公司","Address":"臺南市東區東門路2段289、291、293號1樓","Response_X":170962.45000000001,"Response_Y":2542400.6290000002}},{"type":"Feature","id":27,"geometry":{"type":"Point","coordinates":[171140.37999999989,2544351.4700000007]},"properties":{"OBJECTID":27,"店名":"7-11小東","公司名稱":"統一超商股份有限公司","Address":"臺南市東區莊敬里小東路256號1樓","Response_X":171140.38,"Response_Y":2544351.4700000002}},{"type":"Feature","id":28,"geometry":{"type":"Point","coordinates":[171553.60900000017,2542564.1400000006]},"properties":{"OBJECTID":28,"店名":"7-11東復","公司名稱":"統一超商股份有限公司","Address":"臺南市東區富農街1段167號1樓","Response_X":171553.609,"Response_Y":2542564.1400000001}},{"type":"Feature","id":29,"geometry":{"type":"Point","coordinates":[170621.20000000019,2543203.8499999996]},"properties":{"OBJECTID":29,"店名":"7-11衛國","公司名稱":"統一超商股份有限公司","Address":"臺南市東區林森路2段192巷24弄5、7號1樓","Response_X":170621.20000000001,"Response_Y":2543203.8500000001}},{"type":"Feature","id":30,"geometry":{"type":"Point","coordinates":[170818.75999999978,2543331.1889999993]},"properties":{"OBJECTID":30,"店名":"7-11祥發","公司名稱":"統一超商股份有限公司","Address":"臺南市東區裕豐街187、189、191號1樓","Response_X":170818.76000000001,"Response_Y":2543331.1889999998}},{"type":"Feature","id":31,"geometry":{"type":"Point","coordinates":[169728.79000000004,2544088.3589999992]},"properties":{"OBJECTID":31,"店名":"7-11新東育","公司名稱":"統一超商股份有限公司","Address":"臺南市東區大學路西段53號1樓","Response_X":169728.79000000001,"Response_Y":2544088.3590000002}},{"type":"Feature","id":32,"geometry":{"type":"Point","coordinates":[169989.30999999959,2544089.7100000009]},"properties":{"OBJECTID":32,"店名":"7-11成學","公司名稱":"統一超商股份有限公司","Address":"臺南市東區大學路１號１樓","Response_X":169989.31,"Response_Y":2544089.71}},{"type":"Feature","id":33,"geometry":{"type":"Point","coordinates":[170975.23000000045,2543018.2699999996]},"properties":{"OBJECTID":33,"店名":"7-11好富","公司名稱":"統一超商股份有限公司","Address":"臺南市東區富強里11鄰裕農路320號1樓","Response_X":170975.23000000001,"Response_Y":2543018.27}},{"type":"Feature","id":34,"geometry":{"type":"Point","coordinates":[171499.79899999965,2541970.6290000007]},"properties":{"OBJECTID":34,"店名":"7-11立東","公司名稱":"統一超商股份有限公司","Address":"臺南市東區和平里東門路３段２２０號１樓","Response_X":171499.799,"Response_Y":2541970.6290000002}},{"type":"Feature","id":35,"geometry":{"type":"Point","coordinates":[172247.64900000021,2542543.8499999996]},"properties":{"OBJECTID":35,"店名":"7-10裕興","公司名稱":"統一超商股份有限公司","Address":"臺南市東區復興里裕文路７６號１樓","Response_X":172247.649,"Response_Y":2542543.8500000001}},{"type":"Feature","id":36,"geometry":{"type":"Point","coordinates":[172583.98900000006,2542239.2400000002]},"properties":{"OBJECTID":36,"店名":"7-11裕信","公司名稱":"統一超商股份有限公司","Address":"臺南市東區裕聖里6鄰裕信路352號","Response_X":172583.989,"Response_Y":2542239.2400000002}},{"type":"Feature","id":37,"geometry":{"type":"Point","coordinates":[172616.89900000021,2542839.0889999997]},"properties":{"OBJECTID":37,"店名":"7-11裕平","公司名稱":"統一超商股份有限公司","Address":"臺南市東區關聖里裕信路177號1樓","Response_X":172616.899,"Response_Y":2542839.0890000002}},{"type":"Feature","id":38,"geometry":{"type":"Point","coordinates":[171714.54899999965,2541372.2789999992]},"properties":{"OBJECTID":38,"店名":"7-11仁文","公司名稱":"統一超商股份有限公司","Address":"臺南市東區仁和路59號1樓","Response_X":171714.549,"Response_Y":2541372.2790000001}},{"type":"Feature","id":39,"geometry":{"type":"Point","coordinates":[169868.0700000003,2544048.0889999997]},"properties":{"OBJECTID":39,"店名":"7-12成商","公司名稱":"統一超商股份有限公司","Address":"臺南市東區大學里勝利路118號1樓","Response_X":169868.07000000001,"Response_Y":2544048.0890000002}},{"type":"Feature","id":40,"geometry":{"type":"Point","coordinates":[171710.20000000019,2543245.4600000009]},"properties":{"OBJECTID":40,"店名":"7-11富裕","公司名稱":"統一超商股份有限公司","Address":"臺南市東區後甲里裕農路657號1樓","Response_X":171710.20000000001,"Response_Y":2543245.46}},{"type":"Feature","id":41,"geometry":{"type":"Point","coordinates":[170365.53000000026,2542713.2589999996]},"properties":{"OBJECTID":41,"店名":"7-11帝標","公司名稱":"統一超商股份有限公司","Address":"臺南市東區龍山街109、111號1樓","Response_X":170365.53,"Response_Y":2542713.2590000001}},{"type":"Feature","id":42,"geometry":{"type":"Point","coordinates":[170620.05999999959,2541277.9389999993]},"properties":{"OBJECTID":42,"店名":"7-11崇祐","公司名稱":"統一超商股份有限公司","Address":"臺南市東區崇成里崇明路561號1樓","Response_X":170620.06,"Response_Y":2541277.9389999998}},{"type":"Feature","id":43,"geometry":{"type":"Point","coordinates":[170353.0700000003,2542335.2990000006]},"properties":{"OBJECTID":43,"店名":"7-11崇學","公司名稱":"統一超商股份有限公司","Address":"臺南市東區崇善路168號1樓","Response_X":170353.07000000001,"Response_Y":2542335.2990000001}},{"type":"Feature","id":44,"geometry":{"type":"Point","coordinates":[171912.30999999959,2542814.8990000002]},"properties":{"OBJECTID":44,"店名":"7-11裕文","公司名稱":"統一超商股份有限公司","Address":"臺南市東區裕學路1號1樓","Response_X":171912.31,"Response_Y":2542814.8990000002}},{"type":"Feature","id":45,"geometry":{"type":"Point","coordinates":[171088.44000000041,2540269.2990000006]},"properties":{"OBJECTID":45,"店名":"7-11鼎亨","公司名稱":"統一超商股份有限公司","Address":"臺南市東區大智里德東街101號1樓","Response_X":171088.44,"Response_Y":2540269.2990000001}},{"type":"Feature","id":46,"geometry":{"type":"Point","coordinates":[170795.5,2544304.0490000006]},"properties":{"OBJECTID":46,"店名":"7-11東和","公司名稱":"統一超商股份有限公司","Address":"臺南市東區小東里東安路291、293號1樓","Response_X":170795.5,"Response_Y":2544304.0490000001}},{"type":"Feature","id":47,"geometry":{"type":"Point","coordinates":[171813.2089999998,2541302.5399999991]},"properties":{"OBJECTID":47,"店名":"7-11自由","公司名稱":"統一超商股份有限公司","Address":"臺南市東區和平里自由路2段37號1樓","Response_X":171813.209,"Response_Y":2541302.54}},{"type":"Feature","id":48,"geometry":{"type":"Point","coordinates":[170919.42899999954,2543497.4800000004]},"properties":{"OBJECTID":48,"店名":"7-11席悅","公司名稱":"統一超商股份有限公司","Address":"臺南市東區東明里東興路41號1樓","Response_X":170919.429,"Response_Y":2543497.48}},{"type":"Feature","id":49,"geometry":{"type":"Point","coordinates":[172425.76900000032,2543333.0199999996]},"properties":{"OBJECTID":49,"店名":"7-11裕孝","公司名稱":"統一超商股份有限公司","Address":"臺南市東區裕農路888號1樓","Response_X":172425.769,"Response_Y":2543333.02}},{"type":"Feature","id":50,"geometry":{"type":"Point","coordinates":[171810.45000000019,2540620.6799999997]},"properties":{"OBJECTID":50,"店名":"7-11沐東風","公司名稱":"統一超商股份有限公司","Address":"臺南市東區德昌路58號1樓","Response_X":171810.45000000001,"Response_Y":2540620.6800000002}},{"type":"Feature","id":51,"geometry":{"type":"Point","coordinates":[171838.78000000026,2541226.2990000006]},"properties":{"OBJECTID":51,"店名":"7-11城東","公司名稱":"統一超商股份有限公司","Address":"臺南市東區自由路一段158、160號1樓","Response_X":171838.78,"Response_Y":2541226.2990000001}},{"type":"Feature","id":52,"geometry":{"type":"Point","coordinates":[169258.76900000032,2544246.1089999992]},"properties":{"OBJECTID":52,"店名":"7-11致聖","公司名稱":"統一超商股份有限公司","Address":"臺南市東區北門路二段十二號","Response_X":169258.769,"Response_Y":2544246.1090000002}},{"type":"Feature","id":53,"geometry":{"type":"Point","coordinates":[170087.91000000015,2541891.2400000002]},"properties":{"OBJECTID":53,"店名":"7-11榮譽","公司名稱":"統一超商股份有限公司","Address":"臺南市東區忠孝里榮譽街86、86-1號1樓","Response_X":170087.91,"Response_Y":2541891.2400000002}},{"type":"Feature","id":54,"geometry":{"type":"Point","coordinates":[170164.00999999978,2541573.0800000001]},"properties":{"OBJECTID":54,"店名":"7-11東發","公司名稱":"統一超商股份有限公司","Address":"臺南市東區中華東路三段三七九號一樓","Response_X":170164.01000000001,"Response_Y":2541573.0800000001}},{"type":"Feature","id":55,"geometry":{"type":"Point","coordinates":[170997.09999999963,2540602.7990000006]},"properties":{"OBJECTID":55,"店名":"7-11力大","公司名稱":"統一超商股份有限公司","Address":"臺南市東區生產路508號1樓","Response_X":170997.10000000001,"Response_Y":2540602.7990000001}},{"type":"Feature","id":56,"geometry":{"type":"Point","coordinates":[171848.30999999959,2542058.7400000002]},"properties":{"OBJECTID":56,"店名":"7-11大世紀","公司名稱":"統一超商股份有限公司","Address":"臺南市東區虎尾里自由路三段108號1樓","Response_X":171848.31,"Response_Y":2542058.7400000002}},{"type":"Feature","id":57,"geometry":{"type":"Point","coordinates":[170661.04000000004,2542114.8100000005]},"properties":{"OBJECTID":57,"店名":"7-11崇華","公司名稱":"統一超商股份有限公司","Address":"臺南市東區崇善路259號1樓","Response_X":170661.04000000001,"Response_Y":2542114.8100000001}},{"type":"Feature","id":58,"geometry":{"type":"Point","coordinates":[171375.8200000003,2543906.8300000001]},"properties":{"OBJECTID":58,"店名":"7-11東敬","公司名稱":"統一超商股份有限公司","Address":"臺南市東區東平路35-1、35-2號1樓和莊敬路90號1樓","Response_X":171375.82000000001,"Response_Y":2543906.8300000001}},{"type":"Feature","id":59,"geometry":{"type":"Point","coordinates":[170246.04899999965,2542054.4389999993]},"properties":{"OBJECTID":59,"店名":"7-11德光","公司名稱":"統一超商股份有限公司","Address":"臺南市東區崇德路277號1、2樓","Response_X":170246.049,"Response_Y":2542054.4389999998}},{"type":"Feature","id":60,"geometry":{"type":"Point","coordinates":[169740.13999999966,2543019.9189999998]},"properties":{"OBJECTID":60,"店名":"7-11盛馨","公司名稱":"統一超商股份有限公司","Address":"臺南市東區府連路351、353號1樓","Response_X":169740.14000000001,"Response_Y":2543019.9190000002}},{"type":"Feature","id":61,"geometry":{"type":"Point","coordinates":[171377.12999999989,2541258.2789999992]},"properties":{"OBJECTID":61,"店名":"7-11竹篙厝","公司名稱":"統一超商股份有限公司","Address":"臺南市東區仁和路126號1樓","Response_X":171377.13,"Response_Y":2541258.2790000001}},{"type":"Feature","id":62,"geometry":{"type":"Point","coordinates":[171400.29899999965,2543466.7200000007]},"properties":{"OBJECTID":62,"店名":"7-11南紡","公司名稱":"統一超商股份有限公司","Address":"臺南市東區中華東路一段366號3樓","Response_X":171400.299,"Response_Y":2543466.7200000002}},{"type":"Feature","id":63,"geometry":{"type":"Point","coordinates":[170856.62000000011,2543743.1889999993]},"properties":{"OBJECTID":63,"店名":"7-11凱旋","公司名稱":"統一超商股份有限公司","Address":"臺南市東區東明里怡東路111號1樓","Response_X":170856.62,"Response_Y":2543743.1889999998}},{"type":"Feature","id":64,"geometry":{"type":"Point","coordinates":[171392.12000000011,2542868.75]},"properties":{"OBJECTID":64,"店名":"7-11哈妮","公司名稱":"統一超商股份有限公司","Address":"臺南市東區東聖里中華東路二段69、71號1樓","Response_X":171392.12,"Response_Y":2542868.75}},{"type":"Feature","id":65,"geometry":{"type":"Point","coordinates":[171717.12999999989,2540262.3699999992]},"properties":{"OBJECTID":65,"店名":"7-11佳旻","公司名稱":"統一超商股份有限公司","Address":"臺南市東區德高里崇善路1191號1樓","Response_X":171717.13,"Response_Y":2540262.3700000001}},{"type":"Feature","id":66,"geometry":{"type":"Point","coordinates":[171772.42899999954,2540209.9600000009]},"properties":{"OBJECTID":66,"店名":"7-11崇道","公司名稱":"統一超商股份有限公司","Address":"臺南市東區崇善路569、571號1樓","Response_X":171772.429,"Response_Y":2540209.96}},{"type":"Feature","id":67,"geometry":{"type":"Point","coordinates":[169877.41000000015,2542983.0690000001]},"properties":{"OBJECTID":67,"店名":"7-11璽運","公司名稱":"統一超商股份有限公司","Address":"臺南市東區東門路一段199、201號1樓","Response_X":169877.41,"Response_Y":2542983.0690000001}},{"type":"Feature","id":68,"geometry":{"type":"Point","coordinates":[171146.76900000032,2542562.0600000005]},"properties":{"OBJECTID":68,"店名":"7-11東城","公司名稱":"統一超商股份有限公司","Address":"臺南市東區自強里中華東路二段２９３號","Response_X":171146.769,"Response_Y":2542562.0600000001}},{"type":"Feature","id":69,"geometry":{"type":"Point","coordinates":[171505.4589999998,2544173.8699999992]},"properties":{"OBJECTID":69,"店名":"7-11一心","公司名稱":"統一超商股份有限公司","Address":null,"Response_X":171505.459,"Response_Y":2544173.8700000001}},{"type":"Feature","id":70,"geometry":{"type":"Point","coordinates":[171361.07899999991,2542827.1799999997]},"properties":{"OBJECTID":70,"店名":"7-11財神","公司名稱":"統一超商股份有限公司","Address":null,"Response_X":171361.079,"Response_Y":2542827.1800000002}},{"type":"Feature","id":71,"geometry":{"type":"Point","coordinates":[170806.20000000019,2541040.0089999996]},"properties":{"OBJECTID":71,"店名":"7-11市醫","公司名稱":"統一超商股份有限公司","Address":null,"Response_X":170806.20000000001,"Response_Y":2541040.0090000001}},{"type":"Feature","id":72,"geometry":{"type":"Point","coordinates":[170711.66000000015,2541007.7400000002]},"properties":{"OBJECTID":72,"店名":"7-11吉吉好","公司名稱":"統一超商股份有限公司","Address":null,"Response_X":170711.66,"Response_Y":2541007.7400000002}},{"type":"Feature","id":73,"geometry":{"type":"Point","coordinates":[171037.34999999963,2542128.6089999992]},"properties":{"OBJECTID":73,"店名":"全家仁善","公司名稱":"全家便利商店股份有限公司","Address":"臺南市東區崇善里仁和路32號","Response_X":171037.35000000001,"Response_Y":2542128.6090000002}},{"type":"Feature","id":74,"geometry":{"type":"Point","coordinates":[170778.87999999989,2540781.4499999993]},"properties":{"OBJECTID":74,"店名":"全家崇德","公司名稱":"全家便利商店股份有限公司","Address":"臺南市東區崇成里崇德路737號1樓","Response_X":170778.88,"Response_Y":2540781.4500000002}},{"type":"Feature","id":75,"geometry":{"type":"Point","coordinates":[170936.75,2544014.9389999993]},"properties":{"OBJECTID":75,"店名":"全家東平","公司名稱":"全家便利商店股份有限公司","Address":"臺南市東區小東里光明街217號，219號1樓","Response_X":170936.75,"Response_Y":2544014.9389999998}},{"type":"Feature","id":76,"geometry":{"type":"Point","coordinates":[170444.25999999978,2543287.0089999996]},"properties":{"OBJECTID":76,"店名":"全家林森","公司名稱":"全家便利商店股份有限公司","Address":"臺南市東區衛國里林森路二段188號1樓","Response_X":170444.26000000001,"Response_Y":2543287.0090000001}},{"type":"Feature","id":77,"geometry":{"type":"Point","coordinates":[170694.95000000019,2541711.9389999993]},"properties":{"OBJECTID":77,"店名":"全家崇義","公司名稱":"全家便利商店股份有限公司","Address":"臺南市東區崇德里崇德路471-3號","Response_X":170694.95000000001,"Response_Y":2541711.9389999998}},{"type":"Feature","id":78,"geometry":{"type":"Point","coordinates":[172617.80999999959,2542058.3499999996]},"properties":{"OBJECTID":78,"店名":"全家裕聖","公司名稱":"全家便利商店股份有限公司","Address":"臺南市東區裕勝里裕信路383號","Response_X":172617.81,"Response_Y":2542058.3500000001}},{"type":"Feature","id":79,"geometry":{"type":"Point","coordinates":[171205.82899999991,2540893.3589999992]},"properties":{"OBJECTID":79,"店名":"全家崇善","公司名稱":"全家便利商店股份有限公司","Address":"臺南市東區崇善路688號1樓","Response_X":171205.829,"Response_Y":2540893.3590000002}},{"type":"Feature","id":80,"geometry":{"type":"Point","coordinates":[171614.44000000041,2542830.0889999997]},"properties":{"OBJECTID":80,"店名":"全家富農一","公司名稱":"全家便利商店股份有限公司","Address":"臺南市東區富農街二段3號、3-1號、3-2號1樓","Response_X":171614.44,"Response_Y":2542830.0890000002}},{"type":"Feature","id":81,"geometry":{"type":"Point","coordinates":[169962.95000000019,2542235.0199999996]},"properties":{"OBJECTID":81,"店名":"全家東德","公司名稱":"全家便利商店股份有限公司","Address":"臺南市東區崇德路128號","Response_X":169962.95000000001,"Response_Y":2542235.02}},{"type":"Feature","id":82,"geometry":{"type":"Point","coordinates":[171771.73000000045,2542557.6689999998]},"properties":{"OBJECTID":82,"店名":"全家東成","公司名稱":"全家便利商店股份有限公司","Address":"臺南市東區自由路三段223號","Response_X":171771.73000000001,"Response_Y":2542557.6690000002}},{"type":"Feature","id":83,"geometry":{"type":"Point","coordinates":[171332.41000000015,2541385.1290000007]},"properties":{"OBJECTID":83,"店名":"全家新義統","公司名稱":"全家便利商店股份有限公司","Address":"臺南市東區仁和路101-1號、臺南市東區仁和路101-2號","Response_X":171332.41,"Response_Y":2541385.1290000002}},{"type":"Feature","id":84,"geometry":{"type":"Point","coordinates":[171010.38999999966,2540258.7100000009]},"properties":{"OBJECTID":84,"店名":"全家德東","公司名稱":"全家便利商店股份有限公司","Address":"臺南市東區德東街83號","Response_X":171010.39000000001,"Response_Y":2540258.71}},{"type":"Feature","id":85,"geometry":{"type":"Point","coordinates":[172875.84999999963,2542214.8699999992]},"properties":{"OBJECTID":85,"店名":"全家裕義","公司名稱":"全家便利商店股份有限公司","Address":"臺南市東區裕聖里裕義路576號","Response_X":172875.85000000001,"Response_Y":2542214.8700000001}},{"type":"Feature","id":86,"geometry":{"type":"Point","coordinates":[171485.89900000021,2543984.9100000001]},"properties":{"OBJECTID":86,"店名":"全家中平","公司名稱":"全家便利商店股份有限公司","Address":"臺南市東區莊敬里中華東路一段88號","Response_X":171485.899,"Response_Y":2543984.9100000001}},{"type":"Feature","id":87,"geometry":{"type":"Point","coordinates":[169487.94000000041,2543911.5999999996]},"properties":{"OBJECTID":87,"店名":"全家新博","公司名稱":"全家便利商店股份有限公司","Address":"臺南市東區前鋒里育樂街一七０號一樓","Response_X":169487.94,"Response_Y":2543911.6000000001}},{"type":"Feature","id":88,"geometry":{"type":"Point","coordinates":[169911.82899999991,2542911.2200000007]},"properties":{"OBJECTID":88,"店名":"全家榮寶","公司名稱":"全家便利商店股份有限公司","Address":"臺南市東區龍山里長榮路一段236號1樓","Response_X":169911.829,"Response_Y":2542911.2200000002}},{"type":"Feature","id":89,"geometry":{"type":"Point","coordinates":[170195.41000000015,2543793.3790000007]},"properties":{"OBJECTID":89,"店名":"全家常榮","公司名稱":"全家便利商店股份有限公司","Address":"臺南市東區大學里長榮路三段39號1、2樓","Response_X":170195.41,"Response_Y":2543793.3790000002}},{"type":"Feature","id":90,"geometry":{"type":"Point","coordinates":[169690.17899999954,2541678.25]},"properties":{"OBJECTID":90,"店名":"全家榮玉","公司名稱":"全家便利商店股份有限公司","Address":"臺南市東區大福里榮譽街61號","Response_X":169690.179,"Response_Y":2541678.25}},{"type":"Feature","id":91,"geometry":{"type":"Point","coordinates":[170039.23900000006,2541604.4389999993]},"properties":{"OBJECTID":91,"店名":"全家巴克禮","公司名稱":"全家便利商店股份有限公司","Address":"臺南市東區忠孝里中華東路三段380巷1號1樓","Response_X":170039.239,"Response_Y":2541604.4389999998}},{"type":"Feature","id":92,"geometry":{"type":"Point","coordinates":[169294.83999999985,2543299.0800000001]},"properties":{"OBJECTID":92,"店名":"全家新樓","公司名稱":"全家便利商店股份有限公司","Address":null,"Response_X":169294.84,"Response_Y":2543299.0800000001}},{"type":"Feature","id":93,"geometry":{"type":"Point","coordinates":[169266.3200000003,2544104.5]},"properties":{"OBJECTID":93,"店名":"全家車頭","公司名稱":"全家便利商店股份有限公司","Address":null,"Response_X":169266.32000000001,"Response_Y":2544104.5}},{"type":"Feature","id":94,"geometry":{"type":"Point","coordinates":[171373.41999999993,2542075.0600000005]},"properties":{"OBJECTID":94,"店名":"全家東文","公司名稱":"全家便利商店股份有限公司","Address":null,"Response_X":171373.42000000001,"Response_Y":2542075.0600000001}},{"type":"Feature","id":95,"geometry":{"type":"Point","coordinates":[171968.48000000045,2542845.3699999992]},"properties":{"OBJECTID":95,"店名":"全家虎尾寮","公司名稱":"全家便利商店股份有限公司","Address":"臺南市東區關聖里裕平路15號","Response_X":171968.48000000001,"Response_Y":2542845.3700000001}}]
}